[{"OBJECT_NAME":"STARLINK-1790","OBJECT_ID":"2020-073X","EPOCH":"2026-03-10T00:00:02.999808","MEAN_MOTION":15.73247405,"ECCENTRICITY":0.00030153,"INCLINATION":53.0418,"RA_OF_ASC_NODE":197.0184,"ARG_OF_PERICENTER":160.3471,"MEAN_ANOMALY":75.7637,"EPHEMERIS_TYPE":0,"CLASSIFICATION_TYPE":"U","NORAD_CAT_ID":46691,"ELEMENT_SET_NO":999,"REV_AT_EPOCH":596,"BSTAR":0.00070221254,"MEAN_MOTION_DOT":0.00099338,"MEAN_MOTION_DDOT":0},{"OBJECT_NAME":"COSMOS 2575","OBJECT_ID":"2024-026A","EPOCH":"2026-03-09T18:50:22.144992","MEAN_MOTION":15.75382155,"ECCENTRICITY":0.0001531,"INCLINATION":96.633,"RA_OF_ASC_NODE":317.2894,"ARG_OF_PERICENTER":67.5645,"MEAN_ANOMALY":292.5784,"EPHEMERIS_TYPE":0,"CLASSIFICATION_TYPE":"U","NORAD_CAT_ID":58929,"ELEMENT_SET_NO":999,"REV_AT_EPOCH":11998,"BSTAR":0.00027111555,"MEAN_MOTION_DOT":0.00040851,"MEAN_MOTION_DDOT":0}]
